{"fetched_at":"2026-07-20T18:28:52.300Z","source":"https://celestrak.org/NORAD/elements/gp.php?GROUP=oneweb&FORMAT=JSON","constellation":"oneweb","records":[{"OBJECT_NAME":"ONEWEB-0056","OBJECT_ID":"2020-008AE","EPOCH":"2026-07-20T06:27:58.339008","CLASSIFICATION_TYPE":"U","MEAN_MOTION":13.10375616,"ECCENTRICITY":0.00020408,"INCLINATION":87.8828,"RA_OF_ASC_NODE":29.6688,"ARG_OF_PERICENTER":83.7122,"MEAN_ANOMALY":276.4238,"EPHEMERIS_TYPE":0,"NORAD_CAT_ID":45159,"ELEMENT_SET_NO":999,"REV_AT_EPOCH":31251,"BSTAR":0.00078862603,"MEAN_MOTION_DOT":0.00000288,"MEAN_MOTION_DDOT":0},{"OBJECT_NAME":"ONEWEB-0057","OBJECT_ID":"2020-008AF","EPOCH":"2026-07-20T01:22:57.484128","CLASSIFICATION_TYPE":"U","MEAN_MOTION":13.1037117,"ECCENTRICITY":0.0001451,"INCLINATION":87.8819,"RA_OF_ASC_NODE":29.7225,"ARG_OF_PERICENTER":75.791,"MEAN_ANOMALY":284.3378,"EPHEMERIS_TYPE":0,"NORAD_CAT_ID":45160,"ELEMENT_SET_NO":999,"REV_AT_EPOCH":31265,"BSTAR":0.0018107756,"MEAN_MOTION_DOT":0.00000645,"MEAN_MOTION_DDOT":0},{"OBJECT_NAME":"ONEWEB-0058","OBJECT_ID":"2020-008AG","EPOCH":"2026-07-20T06:33:20.382048","CLASSIFICATION_TYPE":"U","MEAN_MOTION":13.10541413,"ECCENTRICITY":0.00019417,"INCLINATION":87.8815,"RA_OF_ASC_NODE":29.683,"ARG_OF_PERICENTER":96.0731,"MEAN_ANOMALY":264.0618,"EPHEMERIS_TYPE":0,"NORAD_CAT_ID":45161,"ELEMENT_SET_NO":999,"REV_AT_EPOCH":31275,"BSTAR":0.0016649561,"MEAN_MOTION_DOT":0.00000595,"MEAN_MOTION_DDOT":0},{"OBJECT_NAME":"ONEWEB-0059","OBJECT_ID":"2020-008AH","EPOCH":"2026-07-20T06:28:24.122496","CLASSIFICATION_TYPE":"U","MEAN_MOTION":13.10376888,"ECCENTRICITY":0.00015516,"INCLINATION":87.882,"RA_OF_ASC_NODE":29.6837,"ARG_OF_PERICENTER":89.5606,"MEAN_ANOMALY":270.5699,"EPHEMERIS_TYPE":0,"NORAD_CAT_ID":45162,"ELEMENT_SET_NO":999,"REV_AT_EPOCH":31265,"BSTAR":0.00083838723,"MEAN_MOTION_DOT":0.00000305,"MEAN_MOTION_DDOT":0},{"OBJECT_NAME":"ONEWEB-0062","OBJECT_ID":"2020-008AJ","EPOCH":"2026-07-20T01:32:20.057856","CLASSIFICATION_TYPE":"U","MEAN_MOTION":13.10369863,"ECCENTRICITY":0.00021397,"INCLINATION":87.8819,"RA_OF_ASC_NODE":29.7144,"ARG_OF_PERICENTER":94.4233,"MEAN_ANOMALY":265.7139,"EPHEMERIS_TYPE":0,"NORAD_CAT_ID":45163,"ELEMENT_SET_NO":999,"REV_AT_EPOCH":31249,"BSTAR":0.00091364999,"MEAN_MOTION_DOT":0.00000332,"MEAN_MOTION_DDOT":0},{"OBJECT_NAME":"ONEWEB-0065","OBJECT_ID":"2020-008AK","EPOCH":"2026-07-20T00:31:12.182592","CLASSIFICATION_TYPE":"U","MEAN_MOTION":13.10373964,"ECCENTRICITY":0.00017466,"INCLINATION":87.8823,"RA_OF_ASC_NODE":29.7308,"ARG_OF_PERICENTER":78.5362,"MEAN_ANOMALY":281.5962,"EPHEMERIS_TYPE":0,"NORAD_CAT_ID":45164,"ELEMENT_SET_NO":999,"REV_AT_EPOCH":31218,"BSTAR":-0.0015244411,"MEAN_MOTION_DOT":-0.00000519,"MEAN_MOTION_DDOT":0},{"OBJECT_NAME":"ONEWEB-0066","OBJECT_ID":"2020-020A","EPOCH":"2026-07-20T04:23:45.401568","CLASSIFICATION_TYPE":"U","MEAN_MOTION":13.11419343,"ECCENTRICITY":0.00017452,"INCLINATION":87.8885,"RA_OF_ASC_NODE":14.4997,"ARG_OF_PERICENTER":96.4894,"MEAN_ANOMALY":263.6433,"EPHEMERIS_TYPE":0,"NORAD_CAT_ID":45424,"ELEMENT_SET_NO":999,"REV_AT_EPOCH":30700,"BSTAR":0.00019716079,"MEAN_MOTION_DOT":8.3e-7,"MEAN_MOTION_DDOT":0},{"OBJECT_NAME":"ONEWEB-0067","OBJECT_ID":"2020-020B","EPOCH":"2026-07-20T05:18:03.621600","CLASSIFICATION_TYPE":"U","MEAN_MOTION":13.11427434,"ECCENTRICITY":0.0001687,"INCLINATION":87.891,"RA_OF_ASC_NODE":14.4209,"ARG_OF_PERICENTER":87.6502,"MEAN_ANOMALY":272.4819,"EPHEMERIS_TYPE":0,"NORAD_CAT_ID":45425,"ELEMENT_SET_NO":999,"REV_AT_EPOCH":30706,"BSTAR":-0.00001844153,"MEAN_MOTION_DOT":6e-8,"MEAN_MOTION_DDOT":0},{"OBJECT_NAME":"ONEWEB-0080","OBJECT_ID":"2020-020C","EPOCH":"2026-07-20T05:17:44.204928","CLASSIFICATION_TYPE":"U","MEAN_MOTION":13.11414364,"ECCENTRICITY":0.00023366,"INCLINATION":87.89,"RA_OF_ASC_NODE":14.4924,"ARG_OF_PERICENTER":98.987,"MEAN_ANOMALY":261.1522,"EPHEMERIS_TYPE":0,"NORAD_CAT_ID":45426,"ELEMENT_SET_NO":999,"REV_AT_EPOCH":30703,"BSTAR":0.0015852907,"MEAN_MOTION_DOT":0.00000575,"MEAN_MOTION_DDOT":0},{"OBJECT_NAME":"ONEWEB-0090","OBJECT_ID":"2020-020D","EPOCH":"2026-07-20T04:09:21.928608","CLASSIFICATION_TYPE":"U","MEAN_MOTION":13.11415327,"ECCENTRICITY":0.00019005,"INCLINATION":87.8898,"RA_OF_ASC_NODE":14.5059,"ARG_OF_PERICENTER":91.5058,"MEAN_ANOMALY":268.6288,"EPHEMERIS_TYPE":0,"NORAD_CAT_ID":45427,"ELEMENT_SET_NO":999,"REV_AT_EPOCH":30699,"BSTAR":0.0010279163,"MEAN_MOTION_DOT":0.00000377,"MEAN_MOTION_DDOT":0},{"OBJECT_NAME":"ONEWEB-0061","OBJECT_ID":"2020-020E","EPOCH":"2026-07-19T23:25:43.846752","CLASSIFICATION_TYPE":"U","MEAN_MOTION":13.11417873,"ECCENTRICITY":0.00018326,"INCLINATION":87.8895,"RA_OF_ASC_NODE":14.5291,"ARG_OF_PERICENTER":92.5631,"MEAN_ANOMALY":267.5707,"EPHEMERIS_TYPE":0,"NORAD_CAT_ID":45428,"ELEMENT_SET_NO":999,"REV_AT_EPOCH":30692,"BSTAR":-0.0015058046,"MEAN_MOTION_DOT":-0.00000521,"MEAN_MOTION_DDOT":0},{"OBJECT_NAME":"ONEWEB-0081","OBJECT_ID":"2020-020F","EPOCH":"2026-07-20T04:28:41.194560","CLASSIFICATION_TYPE":"U","MEAN_MOTION":13.11415463,"ECCENTRICITY":0.0001623,"INCLINATION":87.889,"RA_OF_ASC_NODE":14.4966,"ARG_OF_PERICENTER":92.4402,"MEAN_ANOMALY":267.6912,"EPHEMERIS_TYPE":0,"NORAD_CAT_ID":45429,"ELEMENT_SET_NO":999,"REV_AT_EPOCH":30706,"BSTAR":-0.00032747313,"MEAN_MOTION_DOT":-0.00000103,"MEAN_MOTION_DDOT":0},{"OBJECT_NAME":"ONEWEB-0069","OBJECT_ID":"2020-020G","EPOCH":"2026-07-20T00:51:34.469568","CLASSIFICATION_TYPE":"U","MEAN_MOTION":13.11417323,"ECCENTRICITY":0.00016383,"INCLINATION":87.8892,"RA_OF_ASC_NODE":14.53,"ARG_OF_PERICENTER":95.5535,"MEAN_ANOMALY":264.578,"EPHEMERIS_TYPE":0,"NORAD_CAT_ID":45430,"ELEMENT_SET_NO":999,"REV_AT_EPOCH":30697,"BSTAR":-0.00083131058,"MEAN_MOTION_DOT":-0.00000282,"MEAN_MOTION_DDOT":0},{"OBJECT_NAME":"ONEWEB-0031","OBJECT_ID":"2020-020H","EPOCH":"2026-07-19T23:52:49.226016","CLASSIFICATION_TYPE":"U","MEAN_MOTION":13.11420036,"ECCENTRICITY":0.00020231,"INCLINATION":87.8884,"RA_OF_ASC_NODE":14.5406,"ARG_OF_PERICENTER":93.7167,"MEAN_ANOMALY":266.4192,"EPHEMERIS_TYPE":0,"NORAD_CAT_ID":45431,"ELEMENT_SET_NO":999,"REV_AT_EPOCH":30695,"BSTAR":0.00022803232,"MEAN_MOTION_DOT":9.4e-7,"MEAN_MOTION_DDOT":0},{"OBJECT_NAME":"ONEWEB-0027","OBJECT_ID":"2020-020J","EPOCH":"2026-07-20T03:23:35.684736","CLASSIFICATION_TYPE":"U","MEAN_MOTION":13.17649508,"ECCENTRICITY":0.00022558,"INCLINATION":87.9153,"RA_OF_ASC_NODE":359.3098,"ARG_OF_PERICENTER":90.9385,"MEAN_ANOMALY":269.2005,"EPHEMERIS_TYPE":0,"NORAD_CAT_ID":45432,"ELEMENT_SET_NO":999,"REV_AT_EPOCH":31069,"BSTAR":-0.00040688076,"MEAN_MOTION_DOT":-0.00000145,"MEAN_MOTION_DDOT":0},{"OBJECT_NAME":"ONEWEB-0064","OBJECT_ID":"2020-020K","EPOCH":"2026-07-19T23:50:21.785280","CLASSIFICATION_TYPE":"U","MEAN_MOTION":13.11418334,"ECCENTRICITY":0.00020249,"INCLINATION":87.8891,"RA_OF_ASC_NODE":14.5342,"ARG_OF_PERICENTER":91.4193,"MEAN_ANOMALY":268.7167,"EPHEMERIS_TYPE":0,"NORAD_CAT_ID":45433,"ELEMENT_SET_NO":999,"REV_AT_EPOCH":30698,"BSTAR":0.00022692597,"MEAN_MOTION_DOT":9.3e-7,"MEAN_MOTION_DDOT":0}]}
